HELIOS 2A               
1 28492U 04049A   22249.47264997  .00001793  00000+0  17689-3 0  9992
2 28492  98.2380 196.3036 0014792 170.2830 189.8653 14.93296028947216
CFESAT                  
1 30777U 07006F   22249.00707049  .00114013  00000+0  10354-2 0  9997
2 30777  35.4167 123.1709 0003490 349.7834  10.2831 15.66653368861772
SPIRALE A               
1 33751U 09008C   22249.23845612  .00000133  00000+0  58259-3 0  9994
2 33751   1.9790 179.2547 5442052  37.6167 350.1144  4.58861392198523
SPIRALE B               
1 33752U 09008D   22248.87842074  .00005527  00000+0  12533-2 0  9999
2 33752   2.1759  70.0456 6859608 239.9749  36.4651  2.82864758127356
SAPPHIRE                
1 39088U 13009C   22249.47770790  .00000064  00000+0  37908-4 0  9991
2 39088  98.4252  83.2035 0012174  40.5401 319.6689 14.34319329498732
